{"type": "FeatureCollection", "features": [{"type": "Feature", "properties": {"name": "India-Pakistan international boundary", "source": "Natural Earth 10m admin_0_boundary_lines_land (public domain), approximate ~1 km"}, "geometry": {"type": "MultiLineString", "coordinates": [[[75.298403, 32.332427], [75.326906, 32.312473], [75.35295, 32.284387], [75.359048, 32.261675], [75.34861, 32.242012], [75.31657, 32.210748], [75.308405, 32.193902], [75.29807, 32.159795], [75.294659, 32.148892]], [[75.294659, 32.148892], [75.263344, 32.150907]], [[75.263344, 32.150907], [75.249908, 32.148892], [75.226447, 32.14207], [75.195751, 32.128634], [75.173116, 32.109721], [75.17415, 32.086828]], [[75.110278, 32.07763], [75.102113, 32.078095], [75.040825, 32.09799]], [[75.040825, 32.09799], [75.022635, 32.094683], [75.030179, 32.066416], [75.020154, 32.065847]], [[75.17415, 32.086828], [75.161334, 32.087965], [75.13839, 32.093494]], [[75.13839, 32.093494], [75.129812, 32.090239], [75.11896, 32.08104], [75.110278, 32.07763]], [[75.020154, 32.065847], [74.995556, 32.067398]], [[74.995556, 32.067398], [74.986151, 32.063212], [74.978503, 32.053393], [74.974059, 32.04497], [74.967858, 32.037891], [74.955662, 32.032206], [74.931374, 32.029829]], [[74.931374, 32.029829], [74.908843, 32.031896]], [[74.908843, 32.031896], [74.889103, 32.028899], [74.873186, 32.011691]], [[74.873186, 32.011691], [74.828641, 32.025437]], [[74.828641, 32.025437], [74.811278, 32.003732], [74.802493, 31.968851], [74.783683, 31.942858], [74.763012, 31.938982]], [[74.763012, 31.938982], [74.698417, 31.950247]], [[74.698417, 31.950247], [74.669995, 31.904152], [74.657179, 31.895677], [74.641056, 31.890561], [74.565608, 31.840538], [74.550415, 31.826999], [74.540804, 31.810876], [74.537393, 31.788913], [74.53698, 31.775736], [74.535119, 31.771137], [74.530778, 31.767829], [74.523027, 31.758476], [74.521167, 31.753773], [74.518273, 31.741836], [74.516206, 31.737392], [74.513312, 31.735118], [74.505457, 31.732018], [74.503287, 31.730571], [74.492641, 31.714551], [74.489437, 31.711192], [74.499463, 31.699875], [74.555583, 31.612232], [74.584522, 31.517509], [74.614598, 31.477821], [74.617181, 31.458908], [74.61191, 31.440201], [74.600025, 31.42413], [74.583695, 31.40656], [74.571603, 31.389248], [74.532225, 31.303207], [74.525301, 31.280211], [74.525094, 31.235407], [74.509074, 31.195668], [74.506387, 31.175411], [74.509591, 31.156084], [74.514862, 31.141821], [74.523544, 31.129315], [74.536773, 31.115156], [74.553103, 31.108955]], [[74.596924, 31.115776], [74.616975, 31.11526], [74.631961, 31.107508], [74.650254, 31.093142], [74.658833, 31.083789], [74.600955, 31.056607], [74.579458, 31.042706], [74.564265, 31.025032], [74.564058, 31.004362], [74.548762, 30.992166], [74.534809, 30.97625], [74.519306, 30.962452], [74.499463, 30.95651], [74.477242, 30.956096], [74.458535, 30.953409], [74.441585, 30.946174], [74.424325, 30.932325], [74.41337, 30.915065], [74.409132, 30.901009], [74.401277, 30.893103]], [[74.553103, 31.108955], [74.596924, 31.115776]], [[74.401277, 30.893103], [74.379677, 30.894498], [74.353632, 30.901112], [74.34247, 30.901939]], [[74.34247, 30.901939], [74.329757, 30.899614], [74.319215, 30.893413], [74.31074, 30.884473], [74.304022, 30.874034], [74.31136, 30.855947], [74.300198, 30.83817], [74.279941, 30.824683], [74.260201, 30.819412], [74.256687, 30.815278], [74.265782, 30.795434], [74.266712, 30.788354], [74.259167, 30.781016], [74.244078, 30.771249], [74.235706, 30.764118], [74.215139, 30.737453], [74.198809, 30.724999], [74.191161, 30.717041], [74.18465, 30.696835], [74.170077, 30.687172], [74.16677, 30.67911], [74.163669, 30.664899], [74.155711, 30.659577], [74.132663, 30.655494], [74.111476, 30.646244], [74.09587, 30.637149], [74.082227, 30.625884], [74.067448, 30.610536], [74.057112, 30.591571], [74.058249, 30.574466], [74.061453, 30.555604], [74.057526, 30.531367], [74.04409, 30.518655], [74.004402, 30.50894], [73.996031, 30.500982], [73.98983, 30.487804], [73.939083, 30.426051], [73.929265, 30.419075], [73.916656, 30.417163]], [[73.916656, 30.417163], [73.899913, 30.422124]], [[73.899913, 30.422124], [73.902083, 30.415612], [73.904253, 30.401453], [73.906114, 30.394838]], [[73.906114, 30.394838], [73.887614, 30.396544]], [[73.887614, 30.396544], [73.867666, 30.387449], [73.85175, 30.372669], [73.845239, 30.35696], [73.842345, 30.35298], [73.891644, 30.329778], [73.911901, 30.303784], [73.934639, 30.261048], [73.948902, 30.217278], [73.946831, 30.204077], [73.944354, 30.188288], [73.778266, 30.067313], [73.739716, 30.048451], [73.557815, 30.012536], [73.385215, 29.942308], [73.370332, 29.927322], [73.327441, 29.80521], [73.284756, 29.683745], [73.232873, 29.536596], [73.177993, 29.443449], [73.1289, 29.360302], [73.050869, 29.228217], [72.98865, 29.15463], [72.962915, 29.116829], [72.930359, 29.047685], [72.918164, 29.032854], [72.901524, 29.022622], [72.77254, 28.96335], [72.658541, 28.911001], [72.52563, 28.84992], [72.382176, 28.784006], [72.354581, 28.767186], [72.28027, 28.687165], [72.256499, 28.645591], [72.197794, 28.44488], [72.17764, 28.397053], [72.149942, 28.353774], [72.110978, 28.317627], [71.988195, 28.228097], [71.908303, 28.135571], [71.896934, 28.115546], [71.89156, 28.097097], [71.879984, 27.974909], [71.874403, 27.95969], [71.860864, 27.950207], [71.70139, 27.906773], [71.560727, 27.868533], [71.477115, 27.862435]], [[70.831573, 27.701463], [70.761758, 27.709783], [70.710391, 27.74115], [70.671738, 27.791095], [70.640732, 27.854787], [70.637631, 27.874217], [70.64161, 27.911269], [70.633187, 27.93163], [70.621198, 27.944135], [70.592879, 27.964496], [70.559806, 27.998447], [70.534898, 28.015965], [70.506786, 28.028962], [70.477227, 28.037256], [70.456247, 28.039788]], [[70.456247, 28.039788], [70.43692, 28.035344], [70.398266, 28.02165], [70.359509, 28.016327], [70.341939, 28.01147], [70.323852, 28.000437], [70.267731, 27.945272], [70.199002, 27.90096], [70.189028, 27.89179], [70.101953, 27.81174], [70.090688, 27.79355], [70.016894, 27.60059], [69.993536, 27.571083], [69.908063, 27.497289], [69.848015, 27.410369], [69.730606, 27.310324], [69.666114, 27.270016], [69.575577, 27.188419], [69.534443, 27.125581], [69.507571, 27.050081], [69.48597, 26.926833], [69.465093, 26.80777], [69.472844, 26.766584], [69.50416, 26.735165], [69.659396, 26.677701], [69.700221, 26.653], [69.772258, 26.59507], [69.815562, 26.580291]], [[71.477115, 27.862435], [71.397791, 27.868378]], [[71.397791, 27.868378], [71.31144, 27.861711], [71.226329, 27.845356], [71.150675, 27.822411], [71.027581, 27.768048], [70.91379, 27.717818], [70.831573, 27.701463]], [[70.056064, 26.589076], [70.093685, 26.580394], [70.1296, 26.562514], [70.158074, 26.530113], [70.162931, 26.493319], [70.156989, 26.410947], [70.160503, 26.371311], [70.157144, 26.354], [70.147945, 26.333226], [70.142467, 26.313692], [70.144018, 26.294313], [70.151614, 26.254058], [70.146912, 26.217419], [70.132029, 26.18047], [70.078285, 26.099648], [70.073893, 26.083112], [70.072911, 26.047455], [70.064281, 25.99552], [70.064643, 25.980327], [70.083246, 25.929943], [70.114976, 25.881729], [70.15425, 25.839406], [70.195591, 25.806953], [70.213988, 25.786334], [70.234452, 25.730989], [70.249231, 25.707683], [70.264579, 25.697296], [70.303698, 25.684583], [70.360129, 25.673473]], [[69.815562, 26.580291], [70.056064, 26.589076]], [[70.592259, 25.708819], [70.632308, 25.701378], [70.653857, 25.674455], [70.657475, 25.63363], [70.652824, 25.545884], [70.646623, 25.431369], [70.654478, 25.39659], [70.670394, 25.375558], [70.710495, 25.335871], [70.718556, 25.310808], [70.723104, 25.287295], [70.734886, 25.267348], [70.768372, 25.233086], [70.831418, 25.183322], [70.848574, 25.163323], [70.859891, 25.139449], [70.893326, 25.001886], [70.915237, 24.946618], [70.943039, 24.894063], [71.00319, 24.808203], [71.036935, 24.72074], [71.056632, 24.69282], [71.063858, 24.682577], [71.043343, 24.669064], [70.977145, 24.639686], [70.962779, 24.615785], [70.954821, 24.584521], [70.957767, 24.556022], [70.977145, 24.54039], [70.980866, 24.534731], [70.981899, 24.52853], [70.980504, 24.521889], [70.977145, 24.515068], [70.974768, 24.494966], [70.973218, 24.48724], [70.973114, 24.479644], [70.974355, 24.472202], [70.977145, 24.464942], [71.00009, 24.452901], [71.040087, 24.446778], [71.07502, 24.436417], [71.082772, 24.411508], [71.073057, 24.402103], [71.025101, 24.38629], [71.014352, 24.375206], [71.007118, 24.363966], [70.996679, 24.356602]], [[70.360129, 25.673473], [70.477227, 25.676315], [70.516657, 25.68386], [70.554432, 25.698794], [70.592259, 25.708819]], [[70.755453, 24.231442], [70.621508, 24.241157], [70.584714, 24.2579], [70.567661, 24.272809], [70.56022, 24.287253], [70.555362, 24.327018], [70.545647, 24.362183], [70.546474, 24.373139], [70.551952, 24.379366], [70.569211, 24.389882], [70.575206, 24.400036], [70.562907, 24.424092], [70.520946, 24.424919]], [[70.520946, 24.424919], [70.416353, 24.401948], [70.370774, 24.372364], [70.353204, 24.366266], [70.29853, 24.363424], [70.2791, 24.355078], [70.242565, 24.330609], [70.222773, 24.326707], [70.202205, 24.325571], [70.144586, 24.307897], [70.109705, 24.3049], [70.097871, 24.298828], [70.087174, 24.28255], [70.062989, 24.220306], [70.052137, 24.202064], [70.015964, 24.174055], [69.972039, 24.165219], [69.769054, 24.162557]], [[70.996679, 24.356602], [70.977145, 24.357248], [70.955338, 24.365904], [70.936321, 24.367196]], [[70.936321, 24.367196], [70.917717, 24.361718], [70.856532, 24.323814], [70.840926, 24.30583], [70.844543, 24.288286], [70.857566, 24.271672], [70.851468, 24.264877], [70.834105, 24.261285], [70.813589, 24.254464], [70.776021, 24.236687], [70.755453, 24.231442]], [[69.166713, 24.253172], [69.148213, 24.25666], [69.091886, 24.281904], [69.067701, 24.288441]], [[69.067701, 24.288441], [69.048477, 24.285237], [69.007808, 24.264567], [69.0, 24.261916954341956]], [[69.769054, 24.162557], [69.714587, 24.168578], [69.670558, 24.188706], [69.59232, 24.264618], [69.563071, 24.276762], [69.280815, 24.283739]], [[69.280815, 24.283739], [69.206246, 24.258572], [69.166713, 24.253172]]]}}]}